norad_id,name,regime,epoch,line1,line2,inclination,eccentricity,mean_motion,raan,arg_pericenter,mean_anomaly
19789,COSMOS 1998,LEO,22024.74677383,1 19789U 89009E   22024.74677383  .00000006  00000-0 -22956-4 0    14\,2 19789  82.6104 275.6022 0016184 340.0507  19.9951 12.64872011521172,82.6104,0.0016184,12.64872011,275.6022,340.0507,19.9951
19789,COSMOS 1998,LEO,22025.37956452,1 19789U 89009E   22025.37956452  .00000005  00000-0 -27697-4 0    17\,2 19789  82.6103 275.1983 0016158 338.5997  21.4418 12.64872004521255,82.6103,0.0016158,12.64872004,275.1983,338.5997,21.4418
19789,COSMOS 1998,LEO,22025.77505867,1 19789U 89009E   22025.77505867  .00000006  00000-0 -25461-4 0    19\,2 19789  82.6103 274.9458 0016140 337.6799  22.3590 12.64872032521308,82.6103,0.001614,12.64872032,274.9458,337.6799,22.359
19789,COSMOS 1998,LEO,22026.40784942,1 19789U 89009E   22026.40784942  .00000004  00000-0 -38206-4 0    12\,2 19789  82.6102 274.5419 0016113 336.2050  23.8296 12.64872011521389,82.6102,0.0016113,12.64872011,274.5419,336.205,23.8296
19789,COSMOS 1998,LEO,22026.80334361,1 19789U 89009E   22026.80334361  .00000004  00000-0 -36956-4 0    12\,2 19789  82.6101 274.2895 0016098 335.2802  24.7517 12.64872023521434,82.6101,0.0016098,12.64872023,274.2895,335.2802,24.7517
19789,COSMOS 1998,LEO,22027.11973899,1 19789U 89009E   22027.11973899  .00000009  00000-0 -82883-5 0    18\,2 19789  82.6100 274.0875 0016084 334.5459  25.4840 12.64872037521470,82.61,0.0016084,12.64872037,274.0875,334.5459,25.484
19789,COSMOS 1998,LEO,22027.75252972,1 19789U 89009E   22027.75252972  .00000014  00000-0  16236-4 0    13\,2 19789  82.6099 273.6836 0016062 333.0787  26.9471 12.64872059521552,82.6099,0.0016062,12.64872059,273.6836,333.0787,26.9471
19789,COSMOS 1998,LEO,22028.14802400,1 19789U 89009E   22028.14802400  .00000012  00000-0  60543-5 0    13\,2 19789  82.6099 273.4311 0016044 332.1519  27.8713 12.64872024521608,82.6099,0.0016044,12.64872024,273.4311,332.1519,27.8713
19789,COSMOS 1998,LEO,22028.70171589,1 19789U 89009E   22028.70171589  .00000015  00000-0  26029-4 0    15\,2 19789  82.6098 273.0777 0016022 330.8567  29.1630 12.64872056521678,82.6098,0.0016022,12.64872056,273.0777,330.8567,29.163
19789,COSMOS 1998,LEO,22029.41360554,1 19789U 89009E   22029.41360554  .00000024  00000-0  72542-4 0    17\,2 19789  82.6096 272.6233 0015996 329.1806  30.8346 12.64872069521761,82.6096,0.0015996,12.64872069,272.6233,329.1806,30.8346
19789,COSMOS 1998,LEO,22029.73000094,1 19789U 89009E   22029.73000094  .00000024  00000-0  72052-4 0    18\,2 19789  82.6096 272.4213 0015984 328.4457  31.5675 12.64872072521800,82.6096,0.0015984,12.64872072,272.4213,328.4457,31.5675
19789,COSMOS 1998,LEO,22030.36279174,1 19789U 89009E   22030.36279174  .00000034  00000-0  12522-3 0    12\,2 19789  82.6095 272.0174 0015962 326.9906  33.0188 12.64872107521882,82.6095,0.0015962,12.64872107,272.0174,326.9906,33.0188
19789,COSMOS 1998,LEO,22030.91648366,1 19789U 89009E   22030.91648366  .00000038  00000-0  14773-3 0    10\,2 19789  82.6095 271.6639 0015941 325.6877  34.3185 12.64872139521957,82.6095,0.0015941,12.64872139,271.6639,325.6877,34.3185
19789,COSMOS 1998,LEO,22031.39107676,1 19789U 89009E   22031.39107676  .00000043  00000-0  17273-3 0    11\,2 19789  82.6094 271.3610 0015920 324.5761  35.4273 12.64872174522016,82.6094,0.001592,12.64872174,271.361,324.5761,35.4273
19789,COSMOS 1998,LEO,22031.70747211,1 19789U 89009E   22031.70747211  .00000047  00000-0  19627-3 0    10\,2 19789  82.6094 271.1590 0015909 323.8319  36.1696 12.64872228522050,82.6094,0.0015909,12.64872228,271.159,323.8319,36.1696
19789,COSMOS 1998,LEO,22032.41936171,1 19789U 89009E   22032.41936171  .00000056  00000-0  24456-3 0  7602\,2 19789  82.6093 270.7046 0015881 322.1673  37.8302 12.64872284522328,82.6093,0.0015881,12.64872284,270.7046,322.1673,37.8302
19789,COSMOS 1998,LEO,22032.57755943,1 19789U 89009E   22032.57755943  .00000052  00000-0  22199-3 0    11\,2 19789  82.6093 270.6036 0015874 321.8087  38.1880 12.64872269522163,82.6093,0.0015874,12.64872269,270.6036,321.8087,38.188
19789,COSMOS 1998,LEO,22032.89395479,1 19789U 89009E   22032.89395479  .00000046  00000-0  19339-3 0    15\,2 19789  82.6093 270.4016 0015863 321.0606  38.9343 12.64872257522200,82.6093,0.0015863,12.64872257,270.4016,321.0606,38.9343
19789,COSMOS 1998,LEO,22033.60584444,1 19789U 89009E   22033.60584444  .00000039  00000-0  15305-3 0    18\,2 19789  82.6091 269.9471 0015836 319.3863  40.6047 12.64872269522294,82.6091,0.0015836,12.64872269,269.9471,319.3863,40.6047
19789,COSMOS 1998,LEO,22033.92223980,1 19789U 89009E   22033.92223980  .00000037  00000-0  14079-3 0    13\,2 19789  82.6091 269.7451 0015826 318.6370  41.3523 12.64872272522330,82.6091,0.0015826,12.64872272,269.7451,318.637,41.3523
19789,COSMOS 1998,LEO,22034.39683288,1 19789U 89009E   22034.39683288  .00000035  00000-0  13169-3 0    13\,2 19789  82.6090 269.4422 0015810 317.5139  42.4729 12.64872289522392,82.609,0.001581,12.64872289,269.4422,317.5139,42.4729
19789,COSMOS 1998,LEO,22035.10872249,1 19789U 89009E   22035.10872249  .00000026  00000-0  82388-4 0  7613\,2 19789  82.6089 268.9877 0015786 315.8289  44.1542 12.64872288522668,82.6089,0.0015786,12.64872288,268.9877,315.8289,44.1542
19789,COSMOS 1998,LEO,22035.34601904,1 19789U 89009E   22035.34601904  .00000022  00000-0  61906-4 0    13\,2 19789  82.6089 268.8363 0015776 315.2820  44.7000 12.64872282522514,82.6089,0.0015776,12.64872282,268.8363,315.282,44.7
19789,COSMOS 1998,LEO,22035.89971090,1 19789U 89009E   22035.89971090  .00000018  00000-0  39846-4 0    12\,2 19789  82.6088 268.4828 0015763 313.9504  46.0287 12.64872312522588,82.6088,0.0015763,12.64872312,268.4828,313.9504,46.0287
19789,COSMOS 1998,LEO,22036.37430397,1 19789U 89009E   22036.37430397  .00000018  00000-0  37482-4 0    10\,2 19789  82.6087 268.1798 0015745 312.8364  47.1405 12.64872349522643,82.6087,0.0015745,12.64872349,268.1798,312.8364,47.1405
19789,COSMOS 1998,LEO,22037.16529242,1 19789U 89009E   22037.16529242  .00000012  00000-0  58580-5 0  7627\,2 19789  82.6086 267.6748 0015725 310.9310  49.0421 12.64872356522927,82.6086,0.0015725,12.64872356,267.6748,310.931,49.0421
19789,COSMOS 1998,LEO,22037.56078665,1 19789U 89009E   22037.56078665  .00000012  00000-0  50920-5 0    15\,2 19789  82.6085 267.4223 0015713 309.9802  49.9910 12.64872372522798,82.6085,0.0015713,12.64872372,267.4223,309.9802,49.991
19789,COSMOS 1998,LEO,22037.87718205,1 19789U 89009E   22037.87718205  .00000009  00000-0 -10398-4 0    11\,2 19789  82.6084 267.2203 0015702 309.2286  50.7412 12.64872363522832,82.6084,0.0015702,12.64872363,267.2203,309.2286,50.7412
19789,COSMOS 1998,LEO,22038.35177517,1 19789U 89009E   22038.35177517  .00000008  00000-0 -11467-4 0    17\,2 19789  82.6083 266.9173 0015686 308.1030  51.8648 12.64872384522891,82.6083,0.0015686,12.64872384,266.9173,308.103,51.8648
19789,COSMOS 1998,LEO,22038.90546720,1 19789U 89009E   22038.90546720  .00000007  00000-0 -20883-4 0    15\,2 19789  82.6082 266.5638 0015669 306.7887  53.1767 12.64872373522960,82.6082,0.0015669,12.64872373,266.5638,306.7887,53.1767
19789,COSMOS 1998,LEO,22039.38006033,1 19789U 89009E   22039.38006033  .00000013  00000-0  11072-4 0  7637\,2 19789  82.6082 266.2608 0015657 305.6549  54.3085 12.64872404523203,82.6082,0.0015657,12.64872404,266.2608,305.6549,54.3085
19789,COSMOS 1998,LEO,22039.61735693,1 19789U 89009E   22039.61735693  .00000011  00000-0  46581-5 0    11\,2 19789  82.6081 266.1093 0015649 305.0956  54.8668 12.64872407523054,82.6081,0.0015649,12.64872407,266.1093,305.0956,54.8668
19789,COSMOS 1998,LEO,22039.85465352,1 19789U 89009E   22039.85465352  .00000010  00000-0 -56535-6 0    10\,2 19789  82.6081 265.9578 0015643 304.5297  55.4318 12.64872387523084,82.6081,0.0015643,12.64872387,265.9578,304.5297,55.4318
19789,COSMOS 1998,LEO,22040.56654336,1 19789U 89009E   22040.56654336  .00000010  00000-0 -16489-5 0    15\,2 19789  82.6080 265.5033 0015623 302.8234  57.1353 12.64872378523173,82.608,0.0015623,12.64872378,265.5033,302.8234,57.1353
19789,COSMOS 1998,LEO,22041.59482866,1 19789U 89009E   22041.59482866  .00000017  00000-0  36740-4 0    13\,2 19789  82.6079 264.8468 0015601 300.3429  59.6121 12.64872400523301,82.6079,0.0015601,12.648724,264.8468,300.3429,59.6121
19789,COSMOS 1998,LEO,22041.67392752,1 19789U 89009E   22041.67392752  .00000016  00000-0  31612-4 0  7644\,2 19789  82.6080 264.7963 0015601 300.1479  59.8067 12.64872397523491,82.608,0.0015601,12.64872397,264.7963,300.1479,59.8067
19789,COSMOS 1998,LEO,22041.91122414,1 19789U 89009E   22041.91122414  .00000020  00000-0  49420-4 0    12\,2 19789  82.6079 264.6447 0015597 299.5723  60.3814 12.64872390523346,82.6079,0.0015597,12.6487239,264.6447,299.5723,60.3814
19789,COSMOS 1998,LEO,22042.54401510,1 19789U 89009E   22042.54401510  .00000030  00000-0  10753-3 0    16\,2 19789  82.6079 264.2407 0015578 298.0665  61.8852 12.64872458523428,82.6079,0.0015578,12.64872458,264.2407,298.0665,61.8852
19789,COSMOS 1998,LEO,22042.86041056,1 19789U 89009E   22042.86041056  .00000033  00000-0  12296-3 0    13\,2 19789  82.6079 264.0387 0015571 297.2958  62.6549 12.64872477523469,82.6079,0.0015571,12.64872477,264.0387,297.2958,62.6549
19789,COSMOS 1998,LEO,22043.57230042,1 19789U 89009E   22043.57230042  .00000042  00000-0  17161-3 0    13\,2 19789  82.6078 263.5841 0015549 295.5852  64.3633 12.64872555523556,82.6078,0.0015549,12.64872555,263.5841,295.5852,64.3633
19789,COSMOS 1998,LEO,22043.88869589,1 19789U 89009E   22043.88869589  .00000046  00000-0  18874-3 0    17\,2 19789  82.6077 263.3821 0015544 294.8178  65.1298 12.64872567523592,82.6077,0.0015544,12.64872567,263.3821,294.8178,65.1298
19789,COSMOS 1998,LEO,22044.04689365,1 19789U 89009E   22044.04689365  .00000049  00000-0  20512-3 0  7650\,2 19789  82.6077 263.2811 0015541 294.4366  65.5105 12.64872587523797,82.6077,0.0015541,12.64872587,263.2811,294.4366,65.5105
